{
"type": "FeatureCollection",
"name": "BigRiver_25km",
"crs": { "type": "name", "properties": { "name": "urn:ogc:def:crs:EPSG::6350" } },
"features": [
{ "type": "Feature", "properties": { "huc12": "180101080304", "huc12name": "Lower Big River", "huc12areasqkm": 130.75, "huc12type": "S", "huc12mod": "NM", "fl_reachcode": "18010108000212", "fl_gnisname": "Big River", "fl_FTYPE": "ArtificialPath", "fl_FCODE": 55800, "TerminalFl": 1.0, "fl_Tidal": 1.0, "pourpoint_id": "BigRiver_25km-ppt1_Big River" }, "geometry": { "type": "Point", "coordinates": [ -2341081.01754907425493, 2153582.523927936330438 ] } },
{ "type": "Feature", "properties": { "huc12": "180101080702", "huc12name": "Virgin Creek-Frontal Pacific Ocean", "huc12areasqkm": 124.69, "huc12type": "F", "huc12mod": "NM", "fl_reachcode": "18010108000304", "fl_gnisname": "Pudding Creek", "fl_FTYPE": "ArtificialPath", "fl_FCODE": 55800, "TerminalFl": 1.0, "fl_Tidal": 1.0, "pourpoint_id": "BigRiver_25km-ppt2_Pudding Creek" }, "geometry": { "type": "Point", "coordinates": [ -2337351.745568352285773, 2170804.316113527398556 ] } },
{ "type": "Feature", "properties": { "huc12": "180101080702", "huc12name": "Virgin Creek-Frontal Pacific Ocean", "huc12areasqkm": 124.69, "huc12type": "F", "huc12mod": "NM", "fl_reachcode": "18010108000625", "fl_gnisname": "Inglenook Creek", "fl_FTYPE": "StreamRiver", "fl_FCODE": 46006, "TerminalFl": 1.0, "fl_Tidal": 0.0, "pourpoint_id": "BigRiver_25km-ppt3_Inglenook Creek" }, "geometry": { "type": "Point", "coordinates": [ -2332199.649845344945788, 2177626.067619554232806 ] } },
{ "type": "Feature", "properties": { "huc12": "180101080702", "huc12name": "Virgin Creek-Frontal Pacific Ocean", "huc12areasqkm": 124.69, "huc12type": "F", "huc12mod": "NM", "fl_reachcode": "18010108000628", "fl_gnisname": null, "fl_FTYPE": "StreamRiver", "fl_FCODE": 46006, "TerminalFl": 1.0, "fl_Tidal": 1.0, "pourpoint_id": "BigRiver_25km-ppt4_NA" }, "geometry": { "type": "Point", "coordinates": [ -2332613.229330179747194, 2176979.415499834343791 ] } },
{ "type": "Feature", "properties": { "huc12": "180101080702", "huc12name": "Virgin Creek-Frontal Pacific Ocean", "huc12areasqkm": 124.69, "huc12type": "F", "huc12mod": "NM", "fl_reachcode": "18010108000631", "fl_gnisname": "Virgin Creek", "fl_FTYPE": "StreamRiver", "fl_FCODE": 46006, "TerminalFl": 1.0, "fl_Tidal": 0.0, "pourpoint_id": "BigRiver_25km-ppt5_Virgin Creek" }, "geometry": { "type": "Point", "coordinates": [ -2336555.592235793825239, 2172017.167672405950725 ] } },
{ "type": "Feature", "properties": { "huc12": "180101080703", "huc12name": "Hare Creek-Frontal Pacific Ocean", "huc12areasqkm": 198.93, "huc12type": "F", "huc12mod": "NM", "fl_reachcode": "18010108000280", "fl_gnisname": "Noyo River", "fl_FTYPE": "ArtificialPath", "fl_FCODE": 55800, "TerminalFl": 1.0, "fl_Tidal": 1.0, "pourpoint_id": "BigRiver_25km-ppt6_Noyo River" }, "geometry": { "type": "Point", "coordinates": [ -2338417.062074433546513, 2167435.562261774670333 ] } },
{ "type": "Feature", "properties": { "huc12": "180101080703", "huc12name": "Hare Creek-Frontal Pacific Ocean", "huc12areasqkm": 198.93, "huc12type": "F", "huc12mod": "NM", "fl_reachcode": "18010108000707", "fl_gnisname": "Hare Creek", "fl_FTYPE": "StreamRiver", "fl_FCODE": 46006, "TerminalFl": 1.0, "fl_Tidal": 1.0, "pourpoint_id": "BigRiver_25km-ppt7_Hare Creek" }, "geometry": { "type": "Point", "coordinates": [ -2339013.29030370246619, 2166404.468179289717227 ] } },
{ "type": "Feature", "properties": { "huc12": "180101080703", "huc12name": "Hare Creek-Frontal Pacific Ocean", "huc12areasqkm": 198.93, "huc12type": "F", "huc12mod": "NM", "fl_reachcode": "18010108000716", "fl_gnisname": "Digger Creek", "fl_FTYPE": "StreamRiver", "fl_FCODE": 46006, "TerminalFl": 1.0, "fl_Tidal": 0.0, "pourpoint_id": "BigRiver_25km-ppt8_Digger Creek" }, "geometry": { "type": "Point", "coordinates": [ -2339540.297685385216027, 2165591.100000153761357 ] } },
{ "type": "Feature", "properties": { "huc12": "180101080703", "huc12name": "Hare Creek-Frontal Pacific Ocean", "huc12areasqkm": 198.93, "huc12type": "F", "huc12mod": "NM", "fl_reachcode": "18010108000717", "fl_gnisname": "Mitchell Creek", "fl_FTYPE": "StreamRiver", "fl_FCODE": 46006, "TerminalFl": 1.0, "fl_Tidal": 0.0, "pourpoint_id": "BigRiver_25km-ppt9_Mitchell Creek" }, "geometry": { "type": "Point", "coordinates": [ -2340086.834882311988622, 2163816.396995509508997 ] } },
{ "type": "Feature", "properties": { "huc12": "180101080703", "huc12name": "Hare Creek-Frontal Pacific Ocean", "huc12areasqkm": 198.93, "huc12type": "F", "huc12mod": "NM", "fl_reachcode": "18010108000720", "fl_gnisname": null, "fl_FTYPE": "StreamRiver", "fl_FCODE": 46003, "TerminalFl": 1.0, "fl_Tidal": 0.0, "pourpoint_id": "BigRiver_25km-ppt10_NA" }, "geometry": { "type": "Point", "coordinates": [ -2340339.304690511897206, 2163346.102561545558274 ] } },
{ "type": "Feature", "properties": { "huc12": "180101080703", "huc12name": "Hare Creek-Frontal Pacific Ocean", "huc12areasqkm": 198.93, "huc12type": "F", "huc12mod": "NM", "fl_reachcode": "18010108000721", "fl_gnisname": "Jug Handle Creek", "fl_FTYPE": "StreamRiver", "fl_FCODE": 46006, "TerminalFl": 1.0, "fl_Tidal": 0.0, "pourpoint_id": "BigRiver_25km-ppt11_Jug Handle Creek" }, "geometry": { "type": "Point", "coordinates": [ -2340681.919581586960703, 2162176.933469942770898 ] } },
{ "type": "Feature", "properties": { "huc12": "180101080703", "huc12name": "Hare Creek-Frontal Pacific Ocean", "huc12areasqkm": 198.93, "huc12type": "F", "huc12mod": "NM", "fl_reachcode": "18010108000722", "fl_gnisname": "Caspar Creek", "fl_FTYPE": "StreamRiver", "fl_FCODE": 46006, "TerminalFl": 1.0, "fl_Tidal": 0.0, "pourpoint_id": "BigRiver_25km-ppt12_Caspar Creek" }, "geometry": { "type": "Point", "coordinates": [ -2341108.898573452141136, 2160545.599981623701751 ] } },
{ "type": "Feature", "properties": { "huc12": "180101080703", "huc12name": "Hare Creek-Frontal Pacific Ocean", "huc12areasqkm": 198.93, "huc12type": "F", "huc12mod": "NM", "fl_reachcode": "18010108000727", "fl_gnisname": "Doyle Creek", "fl_FTYPE": "StreamRiver", "fl_FCODE": 46006, "TerminalFl": 1.0, "fl_Tidal": 0.0, "pourpoint_id": "BigRiver_25km-ppt13_Doyle Creek" }, "geometry": { "type": "Point", "coordinates": [ -2341298.712772469036281, 2160439.508829159662127 ] } },
{ "type": "Feature", "properties": { "huc12": "180101080703", "huc12name": "Hare Creek-Frontal Pacific Ocean", "huc12areasqkm": 198.93, "huc12type": "F", "huc12mod": "NM", "fl_reachcode": "18010108000728", "fl_gnisname": null, "fl_FTYPE": "StreamRiver", "fl_FCODE": 46003, "TerminalFl": 1.0, "fl_Tidal": 0.0, "pourpoint_id": "BigRiver_25km-ppt14_NA" }, "geometry": { "type": "Point", "coordinates": [ -2341718.015117851085961, 2159765.052495716139674 ] } },
{ "type": "Feature", "properties": { "huc12": "180101080703", "huc12name": "Hare Creek-Frontal Pacific Ocean", "huc12areasqkm": 198.93, "huc12type": "F", "huc12mod": "NM", "fl_reachcode": "18010108000729", "fl_gnisname": null, "fl_FTYPE": "StreamRiver", "fl_FCODE": 46006, "TerminalFl": 1.0, "fl_Tidal": 0.0, "pourpoint_id": "BigRiver_25km-ppt15_NA" }, "geometry": { "type": "Point", "coordinates": [ -2341201.136893649119884, 2156723.271216517314315 ] } },
{ "type": "Feature", "properties": { "huc12": "180101080703", "huc12name": "Hare Creek-Frontal Pacific Ocean", "huc12areasqkm": 198.93, "huc12type": "F", "huc12mod": "NM", "fl_reachcode": "18010108000732", "fl_gnisname": null, "fl_FTYPE": "StreamRiver", "fl_FCODE": 46006, "TerminalFl": 1.0, "fl_Tidal": 0.0, "pourpoint_id": "BigRiver_25km-ppt16_NA" }, "geometry": { "type": "Point", "coordinates": [ -2341154.723653245717287, 2155597.310269937384874 ] } },
{ "type": "Feature", "properties": { "huc12": "180101080801", "huc12name": "Albion River", "huc12areasqkm": 110.51, "huc12type": "S", "huc12mod": "NM", "fl_reachcode": "18010108000187", "fl_gnisname": "Albion River", "fl_FTYPE": "StreamRiver", "fl_FCODE": 46006, "TerminalFl": 1.0, "fl_Tidal": 1.0, "pourpoint_id": "BigRiver_25km-ppt17_Albion River" }, "geometry": { "type": "Point", "coordinates": [ -2341503.954357995651662, 2144703.177839098963886 ] } },
{ "type": "Feature", "properties": { "huc12": "180101080802", "huc12name": "Big Salmon Creek", "huc12areasqkm": 34.4, "huc12type": "S", "huc12mod": "NM", "fl_reachcode": "18010108000479", "fl_gnisname": "Little Salmon Creek", "fl_FTYPE": "StreamRiver", "fl_FCODE": 46006, "TerminalFl": 1.0, "fl_Tidal": 0.0, "pourpoint_id": "BigRiver_25km-ppt18_Little Salmon Creek" }, "geometry": { "type": "Point", "coordinates": [ -2341686.667656326200813, 2143549.907609281595796 ] } },
{ "type": "Feature", "properties": { "huc12": "180101080802", "huc12name": "Big Salmon Creek", "huc12areasqkm": 34.4, "huc12type": "S", "huc12mod": "NM", "fl_reachcode": "18010108001337", "fl_gnisname": "Big Salmon Creek", "fl_FTYPE": "StreamRiver", "fl_FCODE": 46006, "TerminalFl": 1.0, "fl_Tidal": 0.0, "pourpoint_id": "BigRiver_25km-ppt19_Big Salmon Creek" }, "geometry": { "type": "Point", "coordinates": [ -2341686.667656326200813, 2143549.907609281595796 ] } },
{ "type": "Feature", "properties": { "huc12": "180101080803", "huc12name": "Little River-Frontal Pacific Ocean", "huc12areasqkm": 117.82, "huc12type": "F", "huc12mod": "NM", "fl_reachcode": "18010108000821", "fl_gnisname": null, "fl_FTYPE": "StreamRiver", "fl_FCODE": 46006, "TerminalFl": 1.0, "fl_Tidal": 0.0, "pourpoint_id": "BigRiver_25km-ppt20_NA" }, "geometry": { "type": "Point", "coordinates": [ -2341723.888145901728421, 2152398.576965367421508 ] } },
{ "type": "Feature", "properties": { "huc12": "180101080803", "huc12name": "Little River-Frontal Pacific Ocean", "huc12areasqkm": 117.82, "huc12type": "F", "huc12mod": "NM", "fl_reachcode": "18010108000822", "fl_gnisname": "Little River", "fl_FTYPE": "StreamRiver", "fl_FCODE": 46006, "TerminalFl": 1.0, "fl_Tidal": 1.0, "pourpoint_id": "BigRiver_25km-ppt21_Little River" }, "geometry": { "type": "Point", "coordinates": [ -2341895.375273114535958, 2150438.118463915772736 ] } },
{ "type": "Feature", "properties": { "huc12": "180101080803", "huc12name": "Little River-Frontal Pacific Ocean", "huc12areasqkm": 117.82, "huc12type": "F", "huc12mod": "NM", "fl_reachcode": "18010108000827", "fl_gnisname": "Schoolhouse Creek", "fl_FTYPE": "StreamRiver", "fl_FCODE": 46006, "TerminalFl": 1.0, "fl_Tidal": 0.0, "pourpoint_id": "BigRiver_25km-ppt22_Schoolhouse Creek" }, "geometry": { "type": "Point", "coordinates": [ -2341917.411975250579417, 2148989.854090037290007 ] } },
{ "type": "Feature", "properties": { "huc12": "180101080803", "huc12name": "Little River-Frontal Pacific Ocean", "huc12areasqkm": 117.82, "huc12type": "F", "huc12mod": "NM", "fl_reachcode": "18010108000828", "fl_gnisname": "Buckhorn Creek", "fl_FTYPE": "StreamRiver", "fl_FCODE": 46006, "TerminalFl": 1.0, "fl_Tidal": 0.0, "pourpoint_id": "BigRiver_25km-ppt23_Buckhorn Creek" }, "geometry": { "type": "Point", "coordinates": [ -2341734.695177325047553, 2148741.718151464592665 ] } },
{ "type": "Feature", "properties": { "huc12": "180101080803", "huc12name": "Little River-Frontal Pacific Ocean", "huc12areasqkm": 117.82, "huc12type": "F", "huc12mod": "NM", "fl_reachcode": "18010108000831", "fl_gnisname": null, "fl_FTYPE": "StreamRiver", "fl_FCODE": 46006, "TerminalFl": 1.0, "fl_Tidal": 0.0, "pourpoint_id": "BigRiver_25km-ppt24_NA" }, "geometry": { "type": "Point", "coordinates": [ -2341546.554764284286648, 2146398.780482140835375 ] } },
{ "type": "Feature", "properties": { "huc12": "180101080901", "huc12name": "Greenwood Creek", "huc12areasqkm": 66.63, "huc12type": "S", "huc12mod": "NM", "fl_reachcode": "18010108000096", "fl_gnisname": "Greenwood Creek", "fl_FTYPE": "StreamRiver", "fl_FCODE": 46006, "TerminalFl": 1.0, "fl_Tidal": 1.0, "pourpoint_id": "BigRiver_25km-ppt25_Greenwood Creek" }, "geometry": { "type": "Point", "coordinates": [ -2340624.128733556717634, 2132834.311981710605323 ] } },
{ "type": "Feature", "properties": { "huc12": "180101080905", "huc12name": "Mallo Pass Creek-Frontal Pacific Ocean", "huc12areasqkm": 228.44, "huc12type": "F", "huc12mod": "NM", "fl_reachcode": "18010108000081", "fl_gnisname": "Elk Creek", "fl_FTYPE": "StreamRiver", "fl_FCODE": 46006, "TerminalFl": 1.0, "fl_Tidal": 0.0, "pourpoint_id": "BigRiver_25km-ppt26_Elk Creek" }, "geometry": { "type": "Point", "coordinates": [ -2340567.946904041804373, 2130027.56080062687397 ] } },
{ "type": "Feature", "properties": { "huc12": "180101080905", "huc12name": "Mallo Pass Creek-Frontal Pacific Ocean", "huc12areasqkm": 228.44, "huc12type": "F", "huc12mod": "NM", "fl_reachcode": "18010108000114", "fl_gnisname": "Navarro River", "fl_FTYPE": "ArtificialPath", "fl_FCODE": 55800, "TerminalFl": 1.0, "fl_Tidal": 1.0, "pourpoint_id": "BigRiver_25km-ppt27_Navarro River" }, "geometry": { "type": "Point", "coordinates": [ -2342046.351380485109985, 2140937.002529633697122 ] } },
{ "type": "Feature", "properties": { "huc12": "180101080905", "huc12name": "Mallo Pass Creek-Frontal Pacific Ocean", "huc12areasqkm": 228.44, "huc12type": "F", "huc12mod": "NM", "fl_reachcode": "18010108001105", "fl_gnisname": null, "fl_FTYPE": "StreamRiver", "fl_FCODE": 46006, "TerminalFl": 1.0, "fl_Tidal": 0.0, "pourpoint_id": "BigRiver_25km-ppt28_NA" }, "geometry": { "type": "Point", "coordinates": [ -2341640.065365337766707, 2138720.587982310447842 ] } },
{ "type": "Feature", "properties": { "huc12": "180101080905", "huc12name": "Mallo Pass Creek-Frontal Pacific Ocean", "huc12areasqkm": 228.44, "huc12type": "F", "huc12mod": "NM", "fl_reachcode": "18010108001106", "fl_gnisname": null, "fl_FTYPE": "StreamRiver", "fl_FCODE": 46006, "TerminalFl": 1.0, "fl_Tidal": 0.0, "pourpoint_id": "BigRiver_25km-ppt29_NA" }, "geometry": { "type": "Point", "coordinates": [ -2341113.647828767076135, 2137028.999971617478877 ] } },
{ "type": "Feature", "properties": { "huc12": "180101080905", "huc12name": "Mallo Pass Creek-Frontal Pacific Ocean", "huc12areasqkm": 228.44, "huc12type": "F", "huc12mod": "NM", "fl_reachcode": "18010108001107", "fl_gnisname": null, "fl_FTYPE": "StreamRiver", "fl_FCODE": 46006, "TerminalFl": 1.0, "fl_Tidal": 0.0, "pourpoint_id": "BigRiver_25km-ppt30_NA" }, "geometry": { "type": "Point", "coordinates": [ -2341238.510191194247454, 2136198.866038997657597 ] } },
{ "type": "Feature", "properties": { "huc12": "180101080905", "huc12name": "Mallo Pass Creek-Frontal Pacific Ocean", "huc12areasqkm": 228.44, "huc12type": "F", "huc12mod": "NM", "fl_reachcode": "18010108001108", "fl_gnisname": null, "fl_FTYPE": "StreamRiver", "fl_FCODE": 46006, "TerminalFl": 1.0, "fl_Tidal": 0.0, "pourpoint_id": "BigRiver_25km-ppt31_NA" }, "geometry": { "type": "Point", "coordinates": [ -2341260.129376618657261, 2135511.877092605922371 ] } },
{ "type": "Feature", "properties": { "huc12": "180101080905", "huc12name": "Mallo Pass Creek-Frontal Pacific Ocean", "huc12areasqkm": 228.44, "huc12type": "F", "huc12mod": "NM", "fl_reachcode": "18010108001109", "fl_gnisname": null, "fl_FTYPE": "StreamRiver", "fl_FCODE": 46006, "TerminalFl": 1.0, "fl_Tidal": 0.0, "pourpoint_id": "BigRiver_25km-ppt32_NA" }, "geometry": { "type": "Point", "coordinates": [ -2340963.80967568885535, 2134429.924446926452219 ] } }
]
}
