{
"type": "FeatureCollection",
"name": "KlamathRiver_25km_adj",
"crs": { "type": "name", "properties": { "name": "urn:ogc:def:crs:EPSG::6350" } },
"features": [
{ "type": "Feature", "properties": { "huc12": "180101010504", "huc12name": "Elk Creek-Frontal Pacific Ocean", "huc12areasqkm": 385.3, "huc12type": "F", "huc12mod": "NM", "fl_reachcode": "18010101000636", "fl_gnisname": "Elk Creek", "fl_FTYPE": "StreamRiver", "fl_FCODE": 46006, "TerminalFl": 1.0, "fl_Tidal": 1.0, "pourpoint_id": "KlamathRiver_25km-ppt1_Elk Creek" }, "geometry": { "type": "Point", "coordinates": [ -2293678.225041292142123, 2425691.637139876838773 ] } },
{ "type": "Feature", "properties": { "huc12": "180101010504", "huc12name": "Elk Creek-Frontal Pacific Ocean", "huc12areasqkm": 385.3, "huc12type": "F", "huc12mod": "NM", "fl_reachcode": "18010101000641", "fl_gnisname": null, "fl_FTYPE": "StreamRiver", "fl_FCODE": 46006, "TerminalFl": 1.0, "fl_Tidal": 1.0, "pourpoint_id": "KlamathRiver_25km-ppt2_NA" }, "geometry": { "type": "Point", "coordinates": [ -2292543.144127427600324, 2424851.459158590994775 ] } },
{ "type": "Feature", "properties": { "huc12": "180101010504", "huc12name": "Elk Creek-Frontal Pacific Ocean", "huc12areasqkm": 385.3, "huc12type": "F", "huc12mod": "NM", "fl_reachcode": "18010101000642", "fl_gnisname": "Nickel Creek", "fl_FTYPE": "StreamRiver", "fl_FCODE": 46006, "TerminalFl": 1.0, "fl_Tidal": 0.0, "pourpoint_id": "KlamathRiver_25km-ppt3_Nickel Creek" }, "geometry": { "type": "Point", "coordinates": [ -2291237.824900242500007, 2419117.73349143890664 ] } },
{ "type": "Feature", "properties": { "huc12": "180101010504", "huc12name": "Elk Creek-Frontal Pacific Ocean", "huc12areasqkm": 385.3, "huc12type": "F", "huc12mod": "NM", "fl_reachcode": "18010101000645", "fl_gnisname": "Damnation Creek", "fl_FTYPE": "StreamRiver", "fl_FCODE": 46006, "TerminalFl": 1.0, "fl_Tidal": 0.0, "pourpoint_id": "KlamathRiver_25km-ppt4_Damnation Creek" }, "geometry": { "type": "Point", "coordinates": [ -2291812.02654833951965, 2413731.739618910942227 ] } },
{ "type": "Feature", "properties": { "huc12": "180101010504", "huc12name": "Elk Creek-Frontal Pacific Ocean", "huc12areasqkm": 385.3, "huc12type": "F", "huc12mod": "NM", "fl_reachcode": "18010101000646", "fl_gnisname": "Wilson Creek", "fl_FTYPE": "StreamRiver", "fl_FCODE": 46003, "TerminalFl": 1.0, "fl_Tidal": 1.0, "pourpoint_id": "KlamathRiver_25km-ppt5_Wilson Creek" }, "geometry": { "type": "Point", "coordinates": [ -2291204.829240492079407, 2407880.794607131741941 ] } },
{ "type": "Feature", "properties": { "huc12": "180101010504", "huc12name": "Elk Creek-Frontal Pacific Ocean", "huc12areasqkm": 385.3, "huc12type": "F", "huc12mod": "NM", "fl_reachcode": "18010101000657", "fl_gnisname": null, "fl_FTYPE": "StreamRiver", "fl_FCODE": 46006, "TerminalFl": 1.0, "fl_Tidal": 1.0, "pourpoint_id": "KlamathRiver_25km-ppt6_NA" }, "geometry": { "type": "Point", "coordinates": [ -2291586.176824846304953, 2406958.60013466887176 ] } },
{ "type": "Feature", "properties": { "huc12": "180101020503", "huc12name": "Luffenholtz Creek-Frontal Pacific Ocean", "huc12areasqkm": 648.94, "huc12type": "F", "huc12mod": "NM", "fl_reachcode": "18010102000552", "fl_gnisname": "Ossagon Creek", "fl_FTYPE": "StreamRiver", "fl_FCODE": 46006, "TerminalFl": 1.0, "fl_Tidal": 0.0, "pourpoint_id": "KlamathRiver_25km-ppt7_Ossagon Creek" }, "geometry": { "type": "Point", "coordinates": [ -2293416.334113601595163, 2389574.453902838286012 ] } },
{ "type": "Feature", "properties": { "huc12": "180101020503", "huc12name": "Luffenholtz Creek-Frontal Pacific Ocean", "huc12areasqkm": 648.94, "huc12type": "F", "huc12mod": "NM", "fl_reachcode": "18010102000553", "fl_gnisname": "Boat Creek", "fl_FTYPE": "StreamRiver", "fl_FCODE": 46006, "TerminalFl": 1.0, "fl_Tidal": 0.0, "pourpoint_id": "KlamathRiver_25km-ppt8_Boat Creek" }, "geometry": { "type": "Point", "coordinates": [ -2294938.027493544854224, 2385811.35281507531181 ] } },
{ "type": "Feature", "properties": { "huc12": "180101020503", "huc12name": "Luffenholtz Creek-Frontal Pacific Ocean", "huc12areasqkm": 648.94, "huc12type": "F", "huc12mod": "NM", "fl_reachcode": "18010102000554", "fl_gnisname": "Home Creek", "fl_FTYPE": "StreamRiver", "fl_FCODE": 46006, "TerminalFl": 1.0, "fl_Tidal": 0.0, "pourpoint_id": "KlamathRiver_25km-ppt9_Home Creek" }, "geometry": { "type": "Point", "coordinates": [ -2295106.950642271898687, 2385490.743131422903389 ] } },
{ "type": "Feature", "properties": { "huc12": "180101020503", "huc12name": "Luffenholtz Creek-Frontal Pacific Ocean", "huc12areasqkm": 648.94, "huc12type": "F", "huc12mod": "NM", "fl_reachcode": "18010102000557", "fl_gnisname": "Squashan Creek", "fl_FTYPE": "StreamRiver", "fl_FCODE": 46006, "TerminalFl": 1.0, "fl_Tidal": 1.0, "pourpoint_id": "KlamathRiver_25km-ppt10_Squashan Creek" }, "geometry": { "type": "Point", "coordinates": [ -2295713.295632723718882, 2384063.986691302154213 ] } },
{ "type": "Feature", "properties": { "huc12": "180102091103", "huc12name": "McGarvey Creek-Klamath River", "huc12areasqkm": 116.76, "huc12type": "S", "huc12mod": "NM", "fl_reachcode": "18010209001346", "fl_gnisname": "Klamath River", "fl_FTYPE": "ArtificialPath", "fl_FCODE": 55800, "TerminalFl": 1.0, "fl_Tidal": 1.0, "pourpoint_id": "KlamathRiver_25km-ppt11_Klamath River" }, "geometry": { "type": "Point", "coordinates": [ -2291941.060594798531383, 2399682.861194722820073 ] } }
]
}
