{
"type": "FeatureCollection",
"name": "RussianRiver_25km",
"crs": { "type": "name", "properties": { "name": "urn:ogc:def:crs:EPSG::6350" } },
"features": [
{ "type": "Feature", "properties": { "huc12": "180101090201", "huc12name": "Salmon Creek", "huc12areasqkm": 90.84, "huc12type": "S", "huc12mod": "NM", "fl_reachcode": "18010109002316", "fl_gnisname": "Salmon Creek", "fl_FTYPE": "StreamRiver", "fl_FCODE": 46006, "TerminalFl": 1.0, "fl_Tidal": 1.0, "pourpoint_id": "RussianRiver_25km-ppt1_Salmon Creek" }, "geometry": { "type": "Point", "coordinates": [ -2311472.202668793033808, 2034076.388383782701567 ] } },
{ "type": "Feature", "properties": { "huc12": "180101090202", "huc12name": "Russian Gulch-Frontal Pacific Ocean", "huc12areasqkm": 430.34, "huc12type": "F", "huc12mod": "NM", "fl_reachcode": "18010109000209", "fl_gnisname": null, "fl_FTYPE": "StreamRiver", "fl_FCODE": 46006, "TerminalFl": 1.0, "fl_Tidal": 0.0, "pourpoint_id": "RussianRiver_25km-ppt2_NA" }, "geometry": { "type": "Point", "coordinates": [ -2328106.950893839821219, 2067671.170330665307119 ] } },
{ "type": "Feature", "properties": { "huc12": "180101090202", "huc12name": "Russian Gulch-Frontal Pacific Ocean", "huc12areasqkm": 430.34, "huc12type": "F", "huc12mod": "NM", "fl_reachcode": "18010109000210", "fl_gnisname": null, "fl_FTYPE": "StreamRiver", "fl_FCODE": 46003, "TerminalFl": 1.0, "fl_Tidal": 0.0, "pourpoint_id": "RussianRiver_25km-ppt3_NA" }, "geometry": { "type": "Point", "coordinates": [ -2327287.644152876920998, 2067008.249875841196626 ] } },
{ "type": "Feature", "properties": { "huc12": "180101090202", "huc12name": "Russian Gulch-Frontal Pacific Ocean", "huc12areasqkm": 430.34, "huc12type": "F", "huc12mod": "NM", "fl_reachcode": "18010109000211", "fl_gnisname": null, "fl_FTYPE": "StreamRiver", "fl_FCODE": 46003, "TerminalFl": 1.0, "fl_Tidal": 0.0, "pourpoint_id": "RussianRiver_25km-ppt4_NA" }, "geometry": { "type": "Point", "coordinates": [ -2326958.35988806700334, 2065984.784016988007352 ] } },
{ "type": "Feature", "properties": { "huc12": "180101090202", "huc12name": "Russian Gulch-Frontal Pacific Ocean", "huc12areasqkm": 430.34, "huc12type": "F", "huc12mod": "NM", "fl_reachcode": "18010109000212", "fl_gnisname": null, "fl_FTYPE": "StreamRiver", "fl_FCODE": 46006, "TerminalFl": 1.0, "fl_Tidal": 0.0, "pourpoint_id": "RussianRiver_25km-ppt5_NA" }, "geometry": { "type": "Point", "coordinates": [ -2326822.298476622439921, 2065425.31284350133501 ] } },
{ "type": "Feature", "properties": { "huc12": "180101090202", "huc12name": "Russian Gulch-Frontal Pacific Ocean", "huc12areasqkm": 430.34, "huc12type": "F", "huc12mod": "NM", "fl_reachcode": "18010109000213", "fl_gnisname": "Miller Creek", "fl_FTYPE": "StreamRiver", "fl_FCODE": 46006, "TerminalFl": 1.0, "fl_Tidal": 0.0, "pourpoint_id": "RussianRiver_25km-ppt6_Miller Creek" }, "geometry": { "type": "Point", "coordinates": [ -2326576.28067734092474, 2064926.925842742901295 ] } },
{ "type": "Feature", "properties": { "huc12": "180101090202", "huc12name": "Russian Gulch-Frontal Pacific Ocean", "huc12areasqkm": 430.34, "huc12type": "F", "huc12mod": "NM", "fl_reachcode": "18010109000214", "fl_gnisname": "Warren Creek", "fl_FTYPE": "StreamRiver", "fl_FCODE": 46003, "TerminalFl": 1.0, "fl_Tidal": 0.0, "pourpoint_id": "RussianRiver_25km-ppt7_Warren Creek" }, "geometry": { "type": "Point", "coordinates": [ -2326924.196913183201104, 2063761.61000066017732 ] } },
{ "type": "Feature", "properties": { "huc12": "180101090202", "huc12name": "Russian Gulch-Frontal Pacific Ocean", "huc12areasqkm": 430.34, "huc12type": "F", "huc12mod": "NM", "fl_reachcode": "18010109000215", "fl_gnisname": null, "fl_FTYPE": "StreamRiver", "fl_FCODE": 46003, "TerminalFl": 1.0, "fl_Tidal": 0.0, "pourpoint_id": "RussianRiver_25km-ppt8_NA" }, "geometry": { "type": "Point", "coordinates": [ -2326149.497169390786439, 2062753.297877128934488 ] } },
{ "type": "Feature", "properties": { "huc12": "180101090202", "huc12name": "Russian Gulch-Frontal Pacific Ocean", "huc12areasqkm": 430.34, "huc12type": "F", "huc12mod": "NM", "fl_reachcode": "18010109000216", "fl_gnisname": "Wildcat Creek", "fl_FTYPE": "StreamRiver", "fl_FCODE": 46003, "TerminalFl": 1.0, "fl_Tidal": 0.0, "pourpoint_id": "RussianRiver_25km-ppt9_Wildcat Creek" }, "geometry": { "type": "Point", "coordinates": [ -2325631.653874482493848, 2062003.085535402642563 ] } },
{ "type": "Feature", "properties": { "huc12": "180101090202", "huc12name": "Russian Gulch-Frontal Pacific Ocean", "huc12areasqkm": 430.34, "huc12type": "F", "huc12mod": "NM", "fl_reachcode": "18010109000217", "fl_gnisname": "Stockhoff Creek", "fl_FTYPE": "StreamRiver", "fl_FCODE": 46003, "TerminalFl": 1.0, "fl_Tidal": 0.0, "pourpoint_id": "RussianRiver_25km-ppt10_Stockhoff Creek" }, "geometry": { "type": "Point", "coordinates": [ -2324501.502782014664263, 2060289.985932593932375 ] } },
{ "type": "Feature", "properties": { "huc12": "180101090202", "huc12name": "Russian Gulch-Frontal Pacific Ocean", "huc12areasqkm": 430.34, "huc12type": "F", "huc12mod": "NM", "fl_reachcode": "18010109000218", "fl_gnisname": null, "fl_FTYPE": "StreamRiver", "fl_FCODE": 46003, "TerminalFl": 1.0, "fl_Tidal": 0.0, "pourpoint_id": "RussianRiver_25km-ppt11_NA" }, "geometry": { "type": "Point", "coordinates": [ -2323843.340056914370507, 2059313.51779785240069 ] } },
{ "type": "Feature", "properties": { "huc12": "180101090202", "huc12name": "Russian Gulch-Frontal Pacific Ocean", "huc12areasqkm": 430.34, "huc12type": "F", "huc12mod": "NM", "fl_reachcode": "18010109000219", "fl_gnisname": "Timber Cove Creek", "fl_FTYPE": "StreamRiver", "fl_FCODE": 46006, "TerminalFl": 1.0, "fl_Tidal": 0.0, "pourpoint_id": "RussianRiver_25km-ppt12_Timber Cove Creek" }, "geometry": { "type": "Point", "coordinates": [ -2322967.754169733729213, 2058176.253548156004399 ] } },
{ "type": "Feature", "properties": { "huc12": "180101090202", "huc12name": "Russian Gulch-Frontal Pacific Ocean", "huc12areasqkm": 430.34, "huc12type": "F", "huc12mod": "NM", "fl_reachcode": "18010109000222", "fl_gnisname": null, "fl_FTYPE": "StreamRiver", "fl_FCODE": 46006, "TerminalFl": 1.0, "fl_Tidal": 0.0, "pourpoint_id": "RussianRiver_25km-ppt13_NA" }, "geometry": { "type": "Point", "coordinates": [ -2322496.871253583114594, 2056993.020157405873761 ] } },
{ "type": "Feature", "properties": { "huc12": "180101090202", "huc12name": "Russian Gulch-Frontal Pacific Ocean", "huc12areasqkm": 430.34, "huc12type": "F", "huc12mod": "NM", "fl_reachcode": "18010109000225", "fl_gnisname": "Fort Ross Creek", "fl_FTYPE": "StreamRiver", "fl_FCODE": 46006, "TerminalFl": 1.0, "fl_Tidal": 0.0, "pourpoint_id": "RussianRiver_25km-ppt14_Fort Ross Creek" }, "geometry": { "type": "Point", "coordinates": [ -2321140.04679205827415, 2055200.981711610453203 ] } },
{ "type": "Feature", "properties": { "huc12": "180101090202", "huc12name": "Russian Gulch-Frontal Pacific Ocean", "huc12areasqkm": 430.34, "huc12type": "F", "huc12mod": "NM", "fl_reachcode": "18010109000228", "fl_gnisname": null, "fl_FTYPE": "StreamRiver", "fl_FCODE": 46006, "TerminalFl": 1.0, "fl_Tidal": 0.0, "pourpoint_id": "RussianRiver_25km-ppt15_NA" }, "geometry": { "type": "Point", "coordinates": [ -2317812.847963524982333, 2051748.223709879908711 ] } },
{ "type": "Feature", "properties": { "huc12": "180101090202", "huc12name": "Russian Gulch-Frontal Pacific Ocean", "huc12areasqkm": 430.34, "huc12type": "F", "huc12mod": "NM", "fl_reachcode": "18010109000393", "fl_gnisname": null, "fl_FTYPE": "StreamRiver", "fl_FCODE": 46006, "TerminalFl": 1.0, "fl_Tidal": 0.0, "pourpoint_id": "RussianRiver_25km-ppt16_NA" }, "geometry": { "type": "Point", "coordinates": [ -2328760.005792145617306, 2069949.255952571518719 ] } },
{ "type": "Feature", "properties": { "huc12": "180101090202", "huc12name": "Russian Gulch-Frontal Pacific Ocean", "huc12areasqkm": 430.34, "huc12type": "F", "huc12mod": "NM", "fl_reachcode": "18010109000402", "fl_gnisname": "Russian Gulch Creek", "fl_FTYPE": "StreamRiver", "fl_FCODE": 46006, "TerminalFl": 1.0, "fl_Tidal": 1.0, "pourpoint_id": "RussianRiver_25km-ppt17_Russian Gulch Creek" }, "geometry": { "type": "Point", "coordinates": [ -2315394.592919980175793, 2048236.391286302357912 ] } },
{ "type": "Feature", "properties": { "huc12": "180101090203", "huc12name": "Bodega Harbor-Frontal Pacific Ocean", "huc12areasqkm": 141.03, "huc12type": "F", "huc12mod": "NM", "fl_reachcode": "18010109002332", "fl_gnisname": null, "fl_FTYPE": "StreamRiver", "fl_FCODE": 46003, "TerminalFl": 1.0, "fl_Tidal": 0.0, "pourpoint_id": "RussianRiver_25km-ppt18_NA" }, "geometry": { "type": "Point", "coordinates": [ -2312502.046697377692908, 2041130.527838896727189 ] } },
{ "type": "Feature", "properties": { "huc12": "180101090203", "huc12name": "Bodega Harbor-Frontal Pacific Ocean", "huc12areasqkm": 141.03, "huc12type": "F", "huc12mod": "NM", "fl_reachcode": "18010109002333", "fl_gnisname": "Scotty Creek", "fl_FTYPE": "StreamRiver", "fl_FCODE": 46003, "TerminalFl": 1.0, "fl_Tidal": 1.0, "pourpoint_id": "RussianRiver_25km-ppt19_Scotty Creek" }, "geometry": { "type": "Point", "coordinates": [ -2311866.28200059523806, 2037604.116727898828685 ] } },
{ "type": "Feature", "properties": { "huc12": "180101090203", "huc12name": "Bodega Harbor-Frontal Pacific Ocean", "huc12areasqkm": 141.03, "huc12type": "F", "huc12mod": "NM", "fl_reachcode": "18010109002338", "fl_gnisname": null, "fl_FTYPE": "StreamRiver", "fl_FCODE": 46003, "TerminalFl": 1.0, "fl_Tidal": 0.0, "pourpoint_id": "RussianRiver_25km-ppt20_NA" }, "geometry": { "type": "Point", "coordinates": [ -2311516.863911615218967, 2035774.157061089994386 ] } },
{ "type": "Feature", "properties": { "huc12": "180101100904", "huc12name": "Willow Creek-Russian River", "huc12areasqkm": 63.13, "huc12type": "S", "huc12mod": "NM", "fl_reachcode": "18010110001373", "fl_gnisname": "Russian River", "fl_FTYPE": "ArtificialPath", "fl_FCODE": 55800, "TerminalFl": 1.0, "fl_Tidal": 1.0, "pourpoint_id": "RussianRiver_25km-ppt21_Russian River" }, "geometry": { "type": "Point", "coordinates": [ -2313566.5920440685004, 2045822.399644023738801 ] } },
{ "type": "Feature", "properties": { "huc12": "180500050305", "huc12name": "Bodega Bay", "huc12areasqkm": 40.4, "huc12type": "W", "huc12mod": "NM", "fl_reachcode": "18050005002616", "fl_gnisname": "Estero Americano", "fl_FTYPE": "Connector", "fl_FCODE": 33400, "TerminalFl": 1.0, "fl_Tidal": 1.0, "pourpoint_id": "RussianRiver_25km-ppt22_Estero Americano" }, "geometry": { "type": "Point", "coordinates": [ -2307885.040157082490623, 2025857.071892983745784 ] } },
{ "type": "Feature", "properties": { "huc12": "180500050305", "huc12name": "Bodega Bay", "huc12areasqkm": 40.4, "huc12type": "W", "huc12mod": "NM", "fl_reachcode": "18050005002646", "fl_gnisname": null, "fl_FTYPE": "StreamRiver", "fl_FCODE": 46003, "TerminalFl": 1.0, "fl_Tidal": 0.0, "pourpoint_id": "RussianRiver_25km-ppt23_NA" }, "geometry": { "type": "Point", "coordinates": [ -2307696.104215648025274, 2025249.089437340851873 ] } }
]
}
